#aV2013  5 26  0  0  0.00000000     288 DD+AD WGS84 FIT  NGA
## 1742      0.00000000   300.00000000 56438 0.0000000000000
+   30     1  2  3  4  5  6  7  8  9 10 11 12 13 14 15 16 17
+         18 19 20 21 22 23 24 25 26 28 29 31 32  0  0  0  0
+          0  0  0  0  0  0  0  0  0  0  0  0  0  0  0  0  0
+          0  0  0  0  0  0  0  0  0  0  0  0  0  0  0  0  0
+          0  0  0  0  0  0  0  0  0  0  0  0  0  0  0  0  0
++         2  2  2  2  2  2  2  2  2  2  2  2  2  2  2  2  2
++         2  2  2  2  2  2  2  2  2  2  2  2  2  2  2  0  0
++         0  0  0  0  0  0  0  0  0  0  0  0  0  0  0  0  0
++         0  0  0  0  0  0  0  0  0  0  0  0  0  0  0  0  0
++         0  0  0  0  0  0  0  0  0  0  0  0  0  0  0  0  0
%c cc cc ccc ccc cccc cccc cccc cccc ccccc ccccc ccccc ccccc
%c cc cc ccc ccc cccc cccc cccc cccc ccccc ccccc ccccc ccccc
%f  0.0000000  0.000000000  0.00000000000  0.000000000000000
%f  0.0000000  0.000000000  0.00000000000  0.000000000000000
%i    0    0    0    0      0      0      0      0         0
%i    0    0    0    0      0      0      0      0         0
/*      NGA, ST. LOUIS,MO.                                  
/*   EPHEMERIS COMPUTED FROM  1 DAYS OF DATA
/*   EPOCHA SMOOTHER  
/* CCCCCCCCCCCCCCCCCCCCCCCCCCCCCCCCCCCCCCCCCCCCCCCCCCCCCCCCC
*  2013  5 26 14 40  0.00000000                                                 
P  1 -19382.740112  -8094.552782  16292.053424     30.321890                    
V  1 -10172.886022 -18105.418301 -20990.081165      0.042347                    
P  2  13039.672511  23154.328186   3962.972069    434.013303                    
V  2  -5199.657990  -2077.407473  30390.337401      0.018485                    
P  3 -14994.958067 -11296.297336 -19382.767566    211.974016                    
V  3  22671.399789  -6537.301217 -13890.013577      0.050228                    
P  4   3936.862075  22498.848119  13040.426565    228.538625                    
V  4 -12325.537784 -12361.591100  24795.347868      0.103907                    
P  5   6245.393336  17895.014388 -18574.995857   -395.582559                    
V  5 -11660.599228  20613.146662  16099.981008     -0.009173                    
P  6  -8778.496644 -14020.521815 -20761.018663    215.467171                    
V  6  26187.880283  -4447.318430  -7669.985950     -0.165302                    
P  7 -13085.132986   7167.582953 -21940.196782    218.086225                    
V  7 -15356.473912 -23300.006598   1252.011691      0.042562                    
P  8  -6042.477478  16052.462716 -19982.286590      6.365562                    
V  8 -13024.428017 -22197.403779 -14392.815084      0.002205                    
P  9   5209.596164  22798.356654 -13049.243354    243.505830                    
V  9 -10234.764333 -11982.697983 -26213.825978      0.025126                    
P 10  -7270.524427  24621.581837  -6178.514930    -81.212969                    
V 10  -6536.922097   5217.251462  30307.735113     -0.014175                    
P 11 -23091.046557 -11155.681236   6977.872814   -385.588898                    
V 11  -4527.988438  -9514.635902 -28132.890518     -0.036597                    
P 12  15318.236828   1578.815406  21570.439008    135.888371                    
V 12 -12129.272864  24629.746174   7002.090811      0.020929                    
P 13 -24891.231412   4947.159398  -8204.457893    115.572427                    
V 13 -10121.911378  -2083.551039  29840.208427     -0.036345                    
P 14   9291.111896 -14097.518208  20664.474300    220.745758                    
V 14  25795.359452    676.234702 -11390.134604     -0.001661                    
P 15  24403.683715   4561.261721  -9821.420402   -120.692676                    
V 15 -12001.516991   4165.379012 -27714.701115     -0.015591                    
P 16  -4439.902144 -18064.927613 -18840.895548   -251.855468                    
V 16  12485.154571 -20463.909391  17028.908209      0.002836                    
P 17  -9339.408101  14470.855317  20373.950306     15.548202                    
V 17 -25456.545579    -76.817640 -11970.564188     -0.038308                    
P 18  15819.409548 -19415.263378  -7880.357128    255.562422                    
V 18  -1037.117114  11367.688813 -28965.606080      0.018064                    
P 19 -21859.021992  -9045.747468 -12584.663334   -376.025166                    
V 19  15697.287205  -1724.226997 -25795.118822     -0.030395                    
P 20 -17360.135669   3627.362391  19580.457445    100.100920                    
V 20   8288.626129 -24035.191845  11769.513367      0.020707                    
P 21  10941.725918 -11352.084517 -20760.258102   -299.660871                    
V 21  16405.273761  22536.273937  -4100.733497     -0.021251                    
P 22   9616.455142 -24553.645720   2620.209566    169.229679                    
V 22   4979.029999  -1076.238140 -30802.702657      0.014620                    
P 23 -26716.322641    459.457982   1862.436271     82.139204                    
V 23   2077.427318  -2757.578140  31273.667807     -0.035946                    
P 24  19708.398263  11443.703173  13662.727852     -7.043493                    
V 24   8126.979996  15500.363141 -24639.626295     -0.007014                    
P 25  17568.133670 -11141.831928  16402.493987    102.056229                    
V 25  -7374.909154  19668.260621  21285.883766      0.043697                    
P 26  13642.912776  13197.585014 -19356.746404     28.085929                    
V 26 -23078.189051    461.911118 -16184.584877      0.155785                    
P 28 -12741.147275  23182.411533    -22.165862    261.909479                    
V 28  -1625.731985  -1729.704149 -32375.200879      0.033554                    
P 29  25053.149803  -5447.196159  -6788.668799    439.162227                    
V 29   8768.894915   2306.824890  30322.173918      0.035480                    
P 31  -4261.062141 -22652.590918  13109.893019    315.673664                    
V 31  10586.509209  12732.431880  26043.359265      0.012568                    
P 32 -13792.722931  -7136.596936  21664.238237   -557.580754                    
V 32  13526.442021 -23666.368712   1338.230373     -0.013636                    
EOF
